 HYPOINVERSE 2000
 6/2014 VERSION 1.40 (geoid depth possible)                            
 RUN ON Fri Nov 27 10:05:47 2015      RUN LABEL= 
 PROCESSING DOMAIN=NC  PROCESSING VERSION=01


 TEST PARAMETERS:
   -ITERATION AND CONVERGENCE-     -WEIGHTING AND ERRORS-     -MISCELLANEOUS-
       20=ITRLIM   0.900=DAMP    50.000=DISCUT   0.160=RMSCUT       4=MINSTA
    0.040=DQUIT    0.001=DRQT     1.000=DISW1    1.500=RMSW1        0=NET
    7.000=DXFIX    0.012=EIGTOL   3.000=DISW2    3.000=RMSW2 
   30.000=DZMAX    0.020=RBACK        4=ITRDIS       4=ITRRES   7.000=ZTR
    0.500=DZAIR    0.600=BACFAC   1.000=SWT      0.150=RDERR 
                                                 1.000=ERCOF

      ------DURATION MAG CONSTANTS------       -DELAYS & MISC-    -STATIONS-
   -5.200=FMA1    -0.905=FMA2   -1.0300=DMA0         F=LMULT        F=ATTEN
    3.890=FMB1     2.026=FMB2    2.1000=DMA1         T=CODAWT       4=SITE-LET
    0.013=FMZ1     0.013=FMZ2    0.0000=DMA2         F=LJUNK        0=NET-LET
    0.004=FMD1     0.004=FMD2    0.0000=DMZ                         0=COMP-LET
    0.000=FMF1     0.000=FMF2    1.0000=DMGN  
    0.000=FMGN   210.000=FMBRK   0.0027=DMLIN 
   0.0000=DCOF1    0.000=DBRK1        1=LOGA0 
   0.0000=DCOF2    0.000=DBRK2 
   0.0000=ZCOF     0.000=ZBRK  

    --- MAGNITUDE LABELS & COMPONENTS ---
    FMAG1: LABEL=   ALL COMPS=
    FMAG2: LABEL=    NO COMPS=
    XMAG1: LABEL=   ALL  TYPE=ALL  COMPS=
    XMAG2: LABEL=    NO  TYPE=ALL  COMPS=
    FMAG1 MAGSEL=1  FMAG2 MAGSEL=1

 INPUT FILES:
 COMMANDS:    hypinst                                                     
                                                                          
 STATIONS:    stn.STA                                                     STATION FORMAT CODE= 3
 DELAYS:                                                                   
 ATTENUATIONS:                                                             
 CAL FACTORS:                                                              
 FMAG CORRECT:                                                             
 XMAG CORRECT:                                                             

 PHASES:       phase.PHS                                                   
        PHASE FORMAT CODE= 1, TERMINATOR FORMAT CODE=1
 HOMOGENEOUS LAYER CRUST 1:  iasp.CRH                                                    

 OUTPUT FILES: (T IF APPENDED TO)
 (F) PRINTOUT:    result.prt                                                  
 (F) ARCHIVE:     result.arc                                                  ARCHIVE FORMAT CODE= 1

1 11 MAR 2011,  6:43  SEQUENCE NO.    1, ID NO.         0
                                                        ADJUSTMENTS (KM)
  I ORIGIN   LAT N     LON W     Z   NWR  RMS    DT    DLAT   DLON    DZ    RR NF MOD
  1 49.44  33 17.94  126E 9.48  7.00  20 2.35 -0.509 -8.723 -2.507  0.000 9.076 3 PRE
  2 48.93  33 13.23  126E11.10  7.00  20 1.89 -1.717-10.459  1.208  0.00010.528 3 PRE
  3 47.21  33  7.59  126E10.32  7.00  20 1.68 -0.735 -3.877 -0.273  0.000 3.887 3 PRE
 FREE DEPTH
 BEGIN MAIN DISTANCE WEIGHTING
 BEGIN RESIDUAL WEIGHTING
 AIRQUAKE PREVENTED
  4 46.48  33  5.50  126E10.50  7.00  12 1.12 -0.194 -2.311  1.081 -3.500 4.331 4 PRE
 AIRQUAKE PREVENTED
  5 46.28  33  4.25  126E 9.80  3.50  11 0.92 -0.041 -0.429  0.292 -1.750 1.825 4 PRE
  6 46.24  33  4.02  126E 9.61  1.75  11 0.90 -0.466 -2.089  3.540  0.090 4.112 3 PRE
  7 45.78  33  2.89  126E 7.33  1.84  11 0.68  0.328  1.641  0.540 -0.103 1.731 3 PRE
  8 46.10  33  3.78  126E 6.98  1.74  11 0.59  0.281  1.343 -0.046 -0.079 1.346 3 PRE
  9 46.39  33  4.50  126E 7.01  1.66  11 0.57  0.065  0.289 -0.029 -0.017 0.291 3 PRE
 10 46.45  33  4.66  126E 7.03  1.64  11 0.56  0.010  0.046 -0.011 -0.003 0.048 3 PRE

              EIGENVALUES
     ( 3.814  0.296  0.214  0.010)
      EIGENVECTORS OF ADJUSTMENT                COVARIANCE             ERRORS
 OT  (-0.976  0.063  0.209  0.001) (   0.363   1.167  -0.856  -1.895)   0.603
 LAT ( 0.164 -0.419  0.891 -0.059) (   1.167  11.430  -0.290  81.920)   3.381
 LON (-0.144 -0.905 -0.400 -0.011) (  -0.856  -0.290   4.527  15.018)   2.128
 Z   (-0.009  0.035 -0.048 -0.998) (  -1.895  81.920  15.0181395.160)  37.352
 ERROR ELLIPSE: <SERR AZ DIP>-<  37.42 349 86>-<   2.66 203  2>-<   1.97 114  1>
 ------------------------------------------------------------------------------------
 YEAR MO DA  --ORIGIN--  --LAT N-  --LON W--  DEPTH-M RMS   ERH   ERZ  XMAG1 FMAG1 PMAG GEOID-DEP
 2011-03-11  0643 46.45  33  4.66  126E 7.03   1.64  0.56  2.66 37.35                       1.76
                                                                                          SOURCE
 NSTA NPHS  DMIN MODEL GAP ITR NFM NWR NWS NVR REMRKS-AVH  N.XMG-XMMAD-T   N.FMG-FMMAD-T  L F X
   20   20  24.4  PRE  306  10   0  11   5  20      -                                          

 XMAG2-N.XMG2-XMMAD-T-S  FMAG2-N.FMG2-FMMAD-T-S  PREF.MAG-N.PMAG-PRMAD-T DEPDAT NS ZT TYP
                                                                           -123  5  M CRH
 REGION=                          

 STA NET COM L CR DIST AZM  AN P/S WT   SEC (TOBS -TCAL -DLY  =RES)  WT   SR  INFO  CAL  DUR-W-FMAG-T -AMP-U-PER-W-XMAG-T DE
 GOS         00   24.4  10  93 IP     51.44  4.99  4.21 0.00  0.78* 1.33     0.441                                           
                               IS     53.02  6.57  7.28 0.00 -0.71* 1.33S    0.807                                           
 SGP         00   40.9  60  92 IP     53.29  6.84  7.05 0.00 -0.21  1.33     0.431                                           
                               IS     58.30 11.85 12.20 0.00 -0.35  1.33S    0.779                                           
 JJU         00   56.0  45  91 IP     56.24  9.79  9.65 0.00  0.14  1.32     0.302                                           
                               IS     64.07 17.62 16.69 0.00  0.93* 1.32S    0.447                                           
 JJB         00   65.0  50  91 IP     57.11 10.66 11.21 0.00 -0.55* 1.26     0.294                                           
                               IS     65.83 19.38 19.39 0.00 -0.01  1.26S    0.401                                           
 SSP         00   78.9  64  91 IP     58.01 11.56 13.61 0.00 -2.05* 0.16     0.005                                           
                               IS     65.83 19.38 23.55 0.00 -4.17* 0.00S    0.000                                           
 BGD         00  126.5  18  90 IP     67.42 20.97 21.81 0.00 -0.84* 0.17     0.025                                           
                               IS     84.12 37.67 37.73 0.00 -0.06  0.17S    0.062                                           
 JDO         00  156.0   6  90 IP     70.99 24.54 26.88 0.00 -2.34* 0.00     0.000                                           
                               IS     87.94 41.49 46.50 0.00 -5.01* 0.00S    0.000                                           
                               IP     71.02 24.57 26.88 0.00 -2.31* 0.00     0.000                                           
                               IS     91.07 44.62 46.50 0.00 -1.88* 0.00S    0.000                                           
 HUK         00  188.9 342  46 IP     77.33 30.88 31.69 0.00 -0.81* 0.00     0.000                                           
                               IS    102.78 56.33 54.82 0.00  1.51* 0.00S    0.000                                           
                               IP     77.01 30.56 31.69 0.00 -1.13* 0.00     0.000                                           
                               IS    102.94 56.49 54.82 0.00  1.67* 0.00S    0.000                                           
